STARLINK-31821          
1 59737U 24090H   26068.32648824 -.00001943  00000+0 -61104-4 0  9999
2 59737  42.9977 185.6308 0000597 125.4469 234.6438 15.27581297103386
FLOCK 4G-6              
1 62660U 25009BD  26068.71061311  .00012261  00000+0  45910-3 0  9991
2 62660  97.3980 150.7943 0002380 348.2637  11.8546 15.27432125121307
